[{"OBJECT_NAME":"FLYING LAPTOP","OBJECT_ID":"2017-042G","EPOCH":"2026-03-09T23:28:27.762240","MEAN_MOTION":15.00523488,"ECCENTRICITY":0.00192138,"INCLINATION":97.4274,"RA_OF_ASC_NODE":228.6392,"ARG_OF_PERICENTER":94.5564,"MEAN_ANOMALY":265.7856,"EPHEMERIS_TYPE":0,"CLASSIFICATION_TYPE":"U","NORAD_CAT_ID":42831,"ELEMENT_SET_NO":999,"REV_AT_EPOCH":47157,"BSTAR":0.00042943592,"MEAN_MOTION_DOT":5.379e-5,"MEAN_MOTION_DDOT":0},{"OBJECT_NAME":"CZ-4B DEB","OBJECT_ID":"2020-067G","EPOCH":"2026-03-09T15:23:17.086272","MEAN_MOTION":14.97507509,"ECCENTRICITY":0.0035481,"INCLINATION":97.6356,"RA_OF_ASC_NODE":124.8214,"ARG_OF_PERICENTER":11.4219,"MEAN_ANOMALY":348.7801,"EPHEMERIS_TYPE":0,"CLASSIFICATION_TYPE":"U","NORAD_CAT_ID":46484,"ELEMENT_SET_NO":999,"REV_AT_EPOCH":29505,"BSTAR":0.00058118,"MEAN_MOTION_DOT":6.807e-5,"MEAN_MOTION_DDOT":0}]
